[{"OBJECT_NAME":"STARLINK-31694","OBJECT_ID":"2024-120F","EPOCH":"2025-09-03T21:30:11.951424","MEAN_MOTION":15.30174758,"ECCENTRICITY":0.00013382,"INCLINATION":53.1596,"RA_OF_ASC_NODE":107.8167,"ARG_OF_PERICENTER":70.56,"MEAN_ANOMALY":289.5545,"EPHEMERIS_TYPE":0,"CLASSIFICATION_TYPE":"U","NORAD_CAT_ID":60140,"ELEMENT_SET_NO":999,"REV_AT_EPOCH":6785,"BSTAR":-4.5774604e-5,"MEAN_MOTION_DOT":-1.713e-5,"MEAN_MOTION_DDOT":0},{"OBJECT_NAME":"STARLINK-32036","OBJECT_ID":"2024-120G","EPOCH":"2025-09-03T21:28:41.011104","MEAN_MOTION":15.30129528,"ECCENTRICITY":3.97e-5,"INCLINATION":53.1595,"RA_OF_ASC_NODE":107.8101,"ARG_OF_PERICENTER":137.5984,"MEAN_ANOMALY":222.5047,"EPHEMERIS_TYPE":0,"CLASSIFICATION_TYPE":"U","NORAD_CAT_ID":60141,"ELEMENT_SET_NO":999,"REV_AT_EPOCH":6785,"BSTAR":0.00028374979,"MEAN_MOTION_DOT":8.036e-5,"MEAN_MOTION_DDOT":0},{"OBJECT_NAME":"STARLINK-32031","OBJECT_ID":"2024-120H","EPOCH":"2025-09-03T21:19:33.262752","MEAN_MOTION":15.30178852,"ECCENTRICITY":7.309e-5,"INCLINATION":53.16,"RA_OF_ASC_NODE":107.7682,"ARG_OF_PERICENTER":78.5388,"MEAN_ANOMALY":281.5695,"EPHEMERIS_TYPE":0,"CLASSIFICATION_TYPE":"U","NORAD_CAT_ID":60142,"ELEMENT_SET_NO":999,"REV_AT_EPOCH":6785,"BSTAR":-5.2555311e-5,"MEAN_MOTION_DOT":-1.914e-5,"MEAN_MOTION_DDOT":0},{"OBJECT_NAME":"STARLINK-32027","OBJECT_ID":"2024-120J","EPOCH":"2025-09-03T21:51:17.926560","MEAN_MOTION":15.30177761,"ECCENTRICITY":0.00011487,"INCLINATION":53.1606,"RA_OF_ASC_NODE":107.1564,"ARG_OF_PERICENTER":113.508,"MEAN_ANOMALY":246.6041,"EPHEMERIS_TYPE":0,"CLASSIFICATION_TYPE":"U","NORAD_CAT_ID":60143,"ELEMENT_SET_NO":999,"REV_AT_EPOCH":6786,"BSTAR":-6.3541296e-5,"MEAN_MOTION_DOT":-2.239e-5,"MEAN_MOTION_DDOT":0},{"OBJECT_NAME":"STARLINK-32033","OBJECT_ID":"2024-120K","EPOCH":"2025-09-03T21:15:00.102240","MEAN_MOTION":15.3017286,"ECCENTRICITY":0.00012161,"INCLINATION":53.1598,"RA_OF_ASC_NODE":107.7479,"ARG_OF_PERICENTER":69.6072,"MEAN_ANOMALY":290.5059,"EPHEMERIS_TYPE":0,"CLASSIFICATION_TYPE":"U","NORAD_CAT_ID":60144,"ELEMENT_SET_NO":999,"REV_AT_EPOCH":6777,"BSTAR":-4.8109346e-5,"MEAN_MOTION_DOT":-1.782e-5,"MEAN_MOTION_DDOT":0},{"OBJECT_NAME":"STARLINK-32029","OBJECT_ID":"2024-120L","EPOCH":"2025-09-03T21:05:52.936224","MEAN_MOTION":15.3017403,"ECCENTRICITY":0.00012509,"INCLINATION":53.1607,"RA_OF_ASC_NODE":107.7101,"ARG_OF_PERICENTER":80.4838,"MEAN_ANOMALY":279.6304,"EPHEMERIS_TYPE":0,"CLASSIFICATION_TYPE":"U","NORAD_CAT_ID":60145,"ELEMENT_SET_NO":999,"REV_AT_EPOCH":6777,"BSTAR":-5.3259128e-5,"MEAN_MOTION_DOT":-1.935e-5,"MEAN_MOTION_DDOT":0},{"OBJECT_NAME":"STARLINK-32127","OBJECT_ID":"2024-120M","EPOCH":"2025-09-03T21:48:16.497792","MEAN_MOTION":15.3017964,"ECCENTRICITY":0.00012007,"INCLINATION":53.1601,"RA_OF_ASC_NODE":107.1843,"ARG_OF_PERICENTER":67.4774,"MEAN_ANOMALY":292.6353,"EPHEMERIS_TYPE":0,"CLASSIFICATION_TYPE":"U","NORAD_CAT_ID":60146,"ELEMENT_SET_NO":999,"REV_AT_EPOCH":6778,"BSTAR":-0.0001252405,"MEAN_MOTION_DOT":-4.064e-5,"MEAN_MOTION_DDOT":0},{"OBJECT_NAME":"STARLINK-32019","OBJECT_ID":"2024-120N","EPOCH":"2025-09-03T20:27:54.011808","MEAN_MOTION":15.30174807,"ECCENTRICITY":0.00012543,"INCLINATION":53.1602,"RA_OF_ASC_NODE":107.5419,"ARG_OF_PERICENTER":73.0408,"MEAN_ANOMALY":287.073,"EPHEMERIS_TYPE":0,"CLASSIFICATION_TYPE":"U","NORAD_CAT_ID":60147,"ELEMENT_SET_NO":999,"REV_AT_EPOCH":6777,"BSTAR":-6.7651862e-5,"MEAN_MOTION_DOT":-2.361e-5,"MEAN_MOTION_DDOT":0},{"OBJECT_NAME":"STARLINK-32021","OBJECT_ID":"2024-120P","EPOCH":"2025-09-03T20:37:07.704480","MEAN_MOTION":15.30182217,"ECCENTRICITY":0.00010357,"INCLINATION":53.1594,"RA_OF_ASC_NODE":97.6375,"ARG_OF_PERICENTER":66.662,"MEAN_ANOMALY":293.449,"EPHEMERIS_TYPE":0,"CLASSIFICATION_TYPE":"U","NORAD_CAT_ID":60148,"ELEMENT_SET_NO":999,"REV_AT_EPOCH":6799,"BSTAR":-2.4660996e-5,"MEAN_MOTION_DOT":-1.089e-5,"MEAN_MOTION_DDOT":0},{"OBJECT_NAME":"STARLINK-32022","OBJECT_ID":"2024-120Q","EPOCH":"2025-09-03T19:18:09.167328","MEAN_MOTION":15.30178131,"ECCENTRICITY":0.00010879,"INCLINATION":53.16,"RA_OF_ASC_NODE":107.9533,"ARG_OF_PERICENTER":91.5525,"MEAN_ANOMALY":268.5601,"EPHEMERIS_TYPE":0,"CLASSIFICATION_TYPE":"U","NORAD_CAT_ID":60149,"ELEMENT_SET_NO":999,"REV_AT_EPOCH":6784,"BSTAR":-5.5718743e-5,"MEAN_MOTION_DOT":-2.008e-5,"MEAN_MOTION_DDOT":0},{"OBJECT_NAME":"STARLINK-32014","OBJECT_ID":"2024-120R","EPOCH":"2025-09-03T22:12:33.558624","MEAN_MOTION":15.30192736,"ECCENTRICITY":0.00012639,"INCLINATION":53.1589,"RA_OF_ASC_NODE":107.2857,"ARG_OF_PERICENTER":129.6458,"MEAN_ANOMALY":230.4655,"EPHEMERIS_TYPE":0,"CLASSIFICATION_TYPE":"U","NORAD_CAT_ID":60150,"ELEMENT_SET_NO":999,"REV_AT_EPOCH":6778,"BSTAR":6.8453992e-5,"MEAN_MOTION_DOT":1.668e-5,"MEAN_MOTION_DDOT":0},{"OBJECT_NAME":"STARLINK-32004","OBJECT_ID":"2024-120S","EPOCH":"2025-09-03T22:17:08.770272","MEAN_MOTION":15.30172475,"ECCENTRICITY":0.00011688,"INCLINATION":53.1592,"RA_OF_ASC_NODE":107.3059,"ARG_OF_PERICENTER":98.1195,"MEAN_ANOMALY":261.9939,"EPHEMERIS_TYPE":0,"CLASSIFICATION_TYPE":"U","NORAD_CAT_ID":60151,"ELEMENT_SET_NO":999,"REV_AT_EPOCH":6786,"BSTAR":-8.1482214e-5,"MEAN_MOTION_DOT":-2.769e-5,"MEAN_MOTION_DDOT":0},{"OBJECT_NAME":"STARLINK-32147","OBJECT_ID":"2024-120T","EPOCH":"2025-09-03T21:34:45.118848","MEAN_MOTION":15.30178193,"ECCENTRICITY":0.0001018,"INCLINATION":53.1594,"RA_OF_ASC_NODE":107.8343,"ARG_OF_PERICENTER":79.1599,"MEAN_ANOMALY":280.9516,"EPHEMERIS_TYPE":0,"CLASSIFICATION_TYPE":"U","NORAD_CAT_ID":60152,"ELEMENT_SET_NO":999,"REV_AT_EPOCH":6777,"BSTAR":-3.2492907e-5,"MEAN_MOTION_DOT":-1.32e-5,"MEAN_MOTION_DDOT":0},{"OBJECT_NAME":"STARLINK-32131","OBJECT_ID":"2024-120U","EPOCH":"2025-09-03T21:10:26.442336","MEAN_MOTION":15.30175553,"ECCENTRICITY":0.00011412,"INCLINATION":53.1601,"RA_OF_ASC_NODE":107.7287,"ARG_OF_PERICENTER":68.6647,"MEAN_ANOMALY":291.4475,"EPHEMERIS_TYPE":0,"CLASSIFICATION_TYPE":"U","NORAD_CAT_ID":60153,"ELEMENT_SET_NO":999,"REV_AT_EPOCH":6785,"BSTAR":-5.5584698e-5,"MEAN_MOTION_DOT":-2.004e-5,"MEAN_MOTION_DDOT":0},{"OBJECT_NAME":"STARLINK-32145","OBJECT_ID":"2024-120V","EPOCH":"2025-09-03T20:32:26.764512","MEAN_MOTION":15.30179416,"ECCENTRICITY":0.00012246,"INCLINATION":53.1591,"RA_OF_ASC_NODE":107.5636,"ARG_OF_PERICENTER":129.2332,"MEAN_ANOMALY":230.8778,"EPHEMERIS_TYPE":0,"CLASSIFICATION_TYPE":"U","NORAD_CAT_ID":60154,"ELEMENT_SET_NO":999,"REV_AT_EPOCH":6777,"BSTAR":-5.7403254e-5,"MEAN_MOTION_DOT":-2.058e-5,"MEAN_MOTION_DDOT":0},{"OBJECT_NAME":"STARLINK-32137","OBJECT_ID":"2024-120W","EPOCH":"2025-09-03T22:30:49.264416","MEAN_MOTION":15.30174208,"ECCENTRICITY":0.00012822,"INCLINATION":53.1608,"RA_OF_ASC_NODE":107.3645,"ARG_OF_PERICENTER":87.2322,"MEAN_ANOMALY":272.8826,"EPHEMERIS_TYPE":0,"CLASSIFICATION_TYPE":"U","NORAD_CAT_ID":60155,"ELEMENT_SET_NO":999,"REV_AT_EPOCH":6778,"BSTAR":-7.1610374e-5,"MEAN_MOTION_DOT":-2.478e-5,"MEAN_MOTION_DDOT":0},{"OBJECT_NAME":"STARLINK-32048","OBJECT_ID":"2024-120X","EPOCH":"2025-09-03T21:01:19.934688","MEAN_MOTION":15.30169575,"ECCENTRICITY":0.00012258,"INCLINATION":53.16,"RA_OF_ASC_NODE":107.6881,"ARG_OF_PERICENTER":78.3842,"MEAN_ANOMALY":281.7297,"EPHEMERIS_TYPE":0,"CLASSIFICATION_TYPE":"U","NORAD_CAT_ID":60156,"ELEMENT_SET_NO":999,"REV_AT_EPOCH":6777,"BSTAR":-0.00010678102,"MEAN_MOTION_DOT":-3.517e-5,"MEAN_MOTION_DDOT":0},{"OBJECT_NAME":"STARLINK-32129","OBJECT_ID":"2024-120Y","EPOCH":"2025-09-03T21:43:53.319936","MEAN_MOTION":15.30100905,"ECCENTRICITY":0.00017073,"INCLINATION":53.1598,"RA_OF_ASC_NODE":107.873,"ARG_OF_PERICENTER":97.248,"MEAN_ANOMALY":262.8715,"EPHEMERIS_TYPE":0,"CLASSIFICATION_TYPE":"U","NORAD_CAT_ID":60157,"ELEMENT_SET_NO":999,"REV_AT_EPOCH":6785,"BSTAR":0.00042577866,"MEAN_MOTION_DOT":0.00012234,"MEAN_MOTION_DDOT":0},{"OBJECT_NAME":"STARLINK-11168 [DTC]","OBJECT_ID":"2024-124A","EPOCH":"2025-09-03T14:51:50.208768","MEAN_MOTION":15.69689234,"ECCENTRICITY":6.767e-5,"INCLINATION":53.1586,"RA_OF_ASC_NODE":3.3694,"ARG_OF_PERICENTER":93.2099,"MEAN_ANOMALY":266.8997,"EPHEMERIS_TYPE":0,"CLASSIFICATION_TYPE":"U","NORAD_CAT_ID":60183,"ELEMENT_SET_NO":999,"REV_AT_EPOCH":6834,"BSTAR":-5.615503e-6,"MEAN_MOTION_DOT":-1.267e-5,"MEAN_MOTION_DDOT":0},{"OBJECT_NAME":"STARLINK-11187 [DTC]","OBJECT_ID":"2024-124B","EPOCH":"2025-09-03T14:44:46.150656","MEAN_MOTION":15.69701511,"ECCENTRICITY":9.57e-5,"INCLINATION":53.1597,"RA_OF_ASC_NODE":3.3379,"ARG_OF_PERICENTER":92.4708,"MEAN_ANOMALY":267.642,"EPHEMERIS_TYPE":0,"CLASSIFICATION_TYPE":"U","NORAD_CAT_ID":60184,"ELEMENT_SET_NO":999,"REV_AT_EPOCH":6715,"BSTAR":-1.5027466e-5,"MEAN_MOTION_DOT":-2.408e-5,"MEAN_MOTION_DDOT":0},{"OBJECT_NAME":"STARLINK-11180 [DTC]","OBJECT_ID":"2024-124C","EPOCH":"2025-09-03T14:37:42.480480","MEAN_MOTION":15.69700593,"ECCENTRICITY":0.00011095,"INCLINATION":53.1602,"RA_OF_ASC_NODE":3.3041,"ARG_OF_PERICENTER":98.144,"MEAN_ANOMALY":261.9704,"EPHEMERIS_TYPE":0,"CLASSIFICATION_TYPE":"U","NORAD_CAT_ID":60185,"ELEMENT_SET_NO":999,"REV_AT_EPOCH":6715,"BSTAR":-2.1334962e-5,"MEAN_MOTION_DOT":-3.171e-5,"MEAN_MOTION_DDOT":0},{"OBJECT_NAME":"STARLINK-11197 [DTC]","OBJECT_ID":"2024-124D","EPOCH":"2025-09-03T14:30:38.424960","MEAN_MOTION":15.69706098,"ECCENTRICITY":0.00020799,"INCLINATION":53.1587,"RA_OF_ASC_NODE":3.2727,"ARG_OF_PERICENTER":41.9938,"MEAN_ANOMALY":318.1239,"EPHEMERIS_TYPE":0,"CLASSIFICATION_TYPE":"U","NORAD_CAT_ID":60186,"ELEMENT_SET_NO":999,"REV_AT_EPOCH":6715,"BSTAR":-6.893935e-6,"MEAN_MOTION_DOT":-1.425e-5,"MEAN_MOTION_DDOT":0},{"OBJECT_NAME":"STARLINK-11194 [DTC]","OBJECT_ID":"2024-124E","EPOCH":"2025-09-03T14:23:34.217376","MEAN_MOTION":15.69703833,"ECCENTRICITY":0.00011927,"INCLINATION":53.159,"RA_OF_ASC_NODE":3.2363,"ARG_OF_PERICENTER":67.6578,"MEAN_ANOMALY":292.4566,"EPHEMERIS_TYPE":0,"CLASSIFICATION_TYPE":"U","NORAD_CAT_ID":60187,"ELEMENT_SET_NO":999,"REV_AT_EPOCH":6715,"BSTAR":2.15476e-7,"MEAN_MOTION_DOT":-5.63e-6,"MEAN_MOTION_DDOT":0}]
